#dP2024  7 27  0  0  0.00000000      96 __u+U IGS20 FIT  IAC
## 2324 518400.00000000   900.00000000 60518 0.0000000000000
+   54   G02G03G04G05G06G07G08G09G10G11G12G13G14G15G16G17G18
+        G19G20G21G22G23G24G25G26G27G28G29G30G31G32R01R02R03
+        R04R05R07R08R09R11R12R13R14R15R16R17R18R19R20R21R22
+        R24R25R26  0  0  0  0  0  0  0  0  0  0  0  0  0  0
+          0  0  0  0  0  0  0  0  0  0  0  0  0  0  0  0  0
++         7  7  7  7  6  7  6  6  7  6  7  7  7  7  6  6  7
++         7  6  6  7  7  6  6  6  6  7  8  6  6  6  7  7  5
++         6  6  6  7  5  6  6  8  5  5  7  6  6  8  7  6  6
++         6  7  8  0  0  0  0  0  0  0  0  0  0  0  0  0  0
++         0  0  0  0  0  0  0  0  0  0  0  0  0  0  0  0  0
%c M  cc GPS ccc cccc cccc cccc cccc ccccc ccccc ccccc ccccc
%c cc cc ccc ccc cccc cccc cccc cccc ccccc ccccc ccccc ccccc
%f  0.0000000  0.000000000  0.00000000000  0.000000000000000
%f  0.0000000  0.000000000  0.00000000000  0.000000000000000
%i    0    0    0    0      0      0      0      0         0
%i    0    0    0    0      0      0      0      0         0
/* INFORMATION & ANALYSIS CENTER (IAC)      ULTRA-RAPID DATA
/* S/V CLOCKS ARE ALIGNED TO GNSS TIME                      
/* G:C1WC2W R:C1PC2P E:C1XC5X C:C2IC6I J:C1CC2S             
/* PCV:IGS20_2317 OL/AL:FES2004  NONE     YN ORB:CoN CLK:CoN
*  2024 07 27  1 30  0.00000000
PG02 -22143.552568 -13986.207959  -4846.903633   -391.204692
PG03 -12334.216066 -14232.452910  18611.965427    475.088134
PG04 -17893.865985  -5294.407451  18969.889357    411.921484
PG05   5701.679224  25128.743061  -6452.813565   -181.118298
PG06 -10366.894538  10697.960938  22059.801396    137.078895
PG07 -23628.233991  -4188.233016 -11344.192013    -62.287798
PG08  -8226.833118 -13074.342027 -21714.598246    291.138288
PG09 -23540.666909   5434.632313  11008.421665    289.238013
PG10  10570.835101 -18034.746118 -15975.507798    -76.745653
PG11   4082.890710  18157.797701  18999.421118   -711.770305
PG12  10578.128136  17430.081222  16766.961919   -525.503446
PG13  -1708.096198  16236.684038 -21117.573840    667.095186
PG14 -13237.814034  14283.883072 -17919.972783    458.191879
PG15   9981.247001  12489.354930 -21720.054881    185.620375
PG16   -347.380142 -26110.252758  -3604.189116   -225.538644
PG17 -22447.200509  14025.068965   3525.030028    669.082992
PG18  23053.249272   3587.208671 -12874.846049   -640.586483
PG19 -17353.821533  16268.474765  11208.962277    516.090683
PG20   1343.805065  26181.665287   4799.954615    372.333054
PG21 -19108.669985 -16222.371798  -9788.464889    106.488179
PG22 -10052.312738  21583.216295 -11653.625238    -44.305656
PG23  14353.674046  -5383.233226 -21637.040224    283.144985
PG24  20530.699036  15529.569212  -7785.956140   -484.622394
PG25  15009.832721   5973.107213  20788.631234    498.864844
PG26   5377.536983 -23782.993633   9916.024793    112.486786
PG27   3631.728657 -17907.626581 -19415.383297    -31.990330
PG28  12535.994777 -10053.702885  21137.820347   -347.851165
PG29  22793.201658   -654.937039  13676.080954   -587.477376
PG30 -17917.426629   5651.100585 -18719.890187   -350.850848
PG31   1215.362182 -16326.291973  20618.494442   -226.440989
PG32  20596.529676 -16005.281432   4613.854730   -609.897922
PR01 -16897.270996  18383.824847   5177.707390     92.614126
PR02  -9735.751130  20511.379242 -11650.786337    -23.860478
PR03   3942.168261  11761.108203 -22254.503533    104.501210
PR04  14821.511995  -3218.778826 -20478.513728    247.034490
PR05  17991.873075 -16338.327456  -7702.008333    135.121404
PR07  -4558.954674 -11161.909396  22508.904698     87.529431
PR08 -15018.377306   3496.845874  20386.949204     -6.178219
PR09  -3027.200459 -22263.226323  12183.340232    199.939499
PR11 -13901.583062 -11270.970247 -18170.387655     16.907611
PR12  -8016.431782   8999.344462 -22451.671129     42.921960
PR13   1139.168155  20993.696904 -14451.220298    -49.855535
PR14  11577.546499  22220.852828   4735.667839     26.725996
PR15  13797.234106   9677.767350  19169.423179     77.478356
PR16   7957.112258  -8801.231559  22601.471899     27.733827
PR17  16480.506193  10270.122516  16573.470368    108.176002
PR18  24942.685704   4980.228244   1637.464703    153.975040
PR19  22005.259087  -1416.382949 -12837.334604   -285.322793
PR20   3206.783337  -9945.977217 -23263.151834   -116.756107
PR21 -15921.225242 -10440.509713 -16959.158295   -120.882063
PR22 -25003.944433  -5048.743446   -363.381314     81.291674
PR24  -2241.516355  10670.450730  23073.249946    -65.330175
PR25 -16250.493733 -11050.690814 -16243.734563    -98.302768
PR26 -14307.781014   2266.119159  21006.776098      6.431227
*  2024 07 27  1 45  0.00000000
PG02 -21361.265355 -13883.389537  -7579.008046   -391.197866
PG03 -12292.227984 -16287.458714  16901.188759    475.102357
PG04 -16010.228894  -6500.092219  20225.177196    411.928447
PG05   5528.355260  25702.783508  -3647.603405   -181.119568
PG06 -12518.287098   9483.871062  21499.662933    137.057829
PG07 -24591.645302  -4961.787580  -8866.484176    -62.281402
PG08  -6174.460658 -14420.503022 -21503.086074    291.152319
PG09 -22486.655360   4480.713999  13365.108690    289.251790
PG10  10781.175414 -16062.942943 -17837.194239    -76.754835
PG11   2105.125474  17106.539442  20251.812763   -711.776049
PG12  10340.275226  19275.131505  14818.822131   -525.506040
PG13  -3859.794870  17099.776447 -20097.355000    667.097256
PG14 -13425.658752  12135.616719 -19325.833262    458.199806
PG15   8167.159742  14024.962682 -21518.981689    185.624475
PG16    -50.662376 -26310.905579   -735.425657   -225.529198
PG17 -22721.736042  13925.727319    677.069099    669.075599
PG18  24132.425716   4378.432763 -10442.453759   -640.589770
PG19 -18509.881417  16564.447617   8635.632879    516.095676
PG20    951.442064  25555.645306   7517.380597    372.332902
PG21 -17862.441106 -15875.349180 -12201.823395    106.487240
PG22 -10169.547421  20059.232251 -13939.895645    -44.309442
PG23  14546.318986  -2891.612740 -21999.914429    283.152908
PG24  19529.123911  15402.672068 -10306.114340   -484.623589
PG25  15060.304381   8371.542800  19943.866961    498.865112
PG26   5849.237549 -22519.446333  12310.780337    112.480336
PG27   5476.519834 -18912.396318 -17913.993393    -31.990947
PG28  14632.231169  -8942.680506  20272.757839   -347.865158
PG29  21375.168410    273.921562  15795.141676   -587.475687
PG30 -19681.411684   4529.901093 -17229.216417   -350.844868
PG31   3393.067890 -15200.827704  21254.253191   -226.440642
PG32  21027.039719 -15971.021008   1773.435123   -609.895862
PR01 -16305.577007  17785.897841   8250.940015     92.614776
PR02 -10377.048550  21612.827876  -8763.633967    -23.861464
PR03   2377.866653  13951.203871 -21193.006810    104.501340
PR04  13179.271720  -1181.665383 -21778.320198    247.035812
PR05  17169.958478 -15536.982774 -10665.212375    135.121795
PR07  -2973.234042 -13361.871124  21549.812643     87.530075
PR08 -13413.896531   1469.654358  21710.503269     -6.178234
PR09  -2392.932228 -20734.283298  14749.250373    199.940898
PR11 -14849.223450 -13161.278015 -16026.828140     16.906495
PR12  -9124.407240   6421.647858 -22907.879884     42.921911
PR13    432.527185  19199.147313 -16795.879960    -49.855607
PR14  11838.841106  22527.480471   1567.771941     26.726435
PR15  14765.515166  11698.882737  17218.511733     77.478072
PR16   9075.226574  -6221.568498  23030.459747     27.734164
PR17  14338.672146   9878.389613  18666.976252    108.179147
PR18  24573.871204   4727.038555   4847.419760    153.976830
PR19  23429.046888  -1373.387403 -10011.737282   -285.325015
PR20   6024.541710  -9492.839427 -22887.923051   -116.756097
PR21 -13734.700776 -10023.771813 -19002.536183   -120.884489
PR22 -24785.351598  -4862.542104  -3564.261503     81.285565
PR24  -5048.173617  10338.157660  22777.064357    -65.332016
PR25 -14156.939222 -10611.921888 -18359.761739    -98.304166
PR26 -12681.211260    160.632774  22145.263704      6.433005
EOF
